NORAD_CAT_ID,OBJECT_NAME,OBJECT_TYPE,EPOCH,MEAN_MOTION,ECCENTRICITY,INCLINATION,RA_OF_ASC_NODE,ARG_OF_PERICENTER,MEAN_ANOMALY,BSTAR,MEAN_MOTION_DOT,MEAN_MOTION_DDOT,TLE_LINE0,TLE_LINE1,TLE_LINE2,SEMIMAJOR_AXIS,PERIOD,APOGEE,PERIGEE,DECAYED
54079.0,STARLINK-5175,PAYLOAD,2023-11-01 12:11:18,15.08844669,0.0001139,53.2176,231.3622,100.3537,259.7584,0.00041447,6.315e-05,0.0,0 STARLINK-5175,1 54079U 22136AE  23305.50784787  .00006315  00000-0  41447-3 0  9996,2 54079  53.2176 231.3622 0001139 100.3537 259.7584 15.08844669 57275,6917.866,95.437,540.519,538.943,0.0
54079.0,STARLINK-5175,PAYLOAD,2023-11-01 20:08:13,15.08843788,0.0001639,53.2178,229.876,97.5445,262.5734,0.00030916,4.636e-05,0.0,0 STARLINK-5175,1 54079U 22136AE  23305.83904994  .00004636  00000-0  30916-3 0  9999,2 54079  53.2178 229.8760 0001639  97.5445 262.5734 15.08843788 57801,6917.869,95.437,540.868,538.6,0.0
54079.0,STARLINK-5175,PAYLOAD,2023-11-02 12:02:05,15.08851149,0.0001722,53.2162,226.901,83.4228,276.696,0.00056785,8.764e-05,0.0,0 STARLINK-5175,1 54079U 22136AE  23306.50144783  .00008764  00000-0  56785-3 0  9994,2 54079  53.2162 226.9010 0001722  83.4228 276.6960 15.08851149 57421,6917.846,95.437,540.903,538.52,0.0
54079.0,STARLINK-5175,PAYLOAD,2023-11-03 03:55:56,15.0886048,0.0001295,53.2157,223.9282,87.8553,272.2588,0.00096975,0.00015188,0.0,0 STARLINK-5175,1 54079U 22136AE  23307.16384426  .00015188  00000-0  96975-3 0  9990,2 54079  53.2157 223.9282 0001295  87.8553 272.2588 15.08860480 58008,6917.818,95.436,540.579,538.787,0.0
54079.0,STARLINK-5175,PAYLOAD,2023-11-03 11:52:52,15.08848607,0.0001027,53.2161,222.4421,95.5403,264.5706,0.00084004,0.0001311,0.0,0 STARLINK-5175,1 54079U 22136AE  23307.49504733  .00013110  00000-0  84004-3 0  9994,2 54079  53.2161 222.4421 0001027  95.5403 264.5706 15.08848607 57579,6917.854,95.437,540.43,539.009,0.0
54079.0,STARLINK-5175,PAYLOAD,2023-11-03 18:14:25,15.08851642,0.0002375,53.2161,221.2531,88.666,271.4604,0.0013483,0.00021243,0.0,0 STARLINK-5175,1 54079U 22136AE  23307.76001299  .00021243  00000-0  13483-2 0  9991,2 54079  53.2161 221.2531 0002375  88.6660 271.4604 15.08851642 58098,6917.845,95.437,541.353,538.067,0.0
54079.0,STARLINK-5175,PAYLOAD,2023-11-04 00:35:57,15.08843523,0.0001519,53.2162,220.0632,104.7431,255.3729,0.0011025,0.00017304,0.0,0 STARLINK-5175,1 54079U 22136AE  23308.02497141  .00017304  00000-0  11025-2 0  9999,2 54079  53.2162 220.0632 0001519 104.7431 255.3729 15.08843523 58136,6917.87,95.437,540.785,538.684,0.0
54079.0,STARLINK-5175,PAYLOAD,2023-11-04 11:43:39,15.08849415,0.0001406,53.2149,217.9809,102.0754,258.0396,0.00074091,0.00011526,0.0,0 STARLINK-5175,1 54079U 22136AE  23308.48864960  .00011526  00000-0  74091-3 0  9999,2 54079  53.2149 217.9809 0001406 102.0754 258.0396 15.08849415 57726,6917.852,95.437,540.689,538.744,0.0
54079.0,STARLINK-5175,PAYLOAD,2023-11-04 21:15:57,15.0885766,0.0001412,53.2149,216.1965,101.8687,258.2464,0.00080138,0.00012495,0.0,0 STARLINK-5175,1 54079U 22136AE  23308.88608663  .00012495  00000-0  80138-3 0  9994,2 54079  53.2149 216.1965 0001412 101.8687 258.2464 15.08857660 58268,6917.826,95.436,540.668,538.715,0.0
54079.0,STARLINK-5175,PAYLOAD,2023-11-04 22:51:20,15.08860556,0.0001374,53.2155,215.8994,102.1009,258.0137,0.00085167,0.000133,0.0,0 STARLINK-5175,1 54079U 22136AE  23308.95232547  .00013300  00000-0  85167-3 0  9999,2 54079  53.2155 215.8994 0001374 102.1009 258.0137 15.08860556 57792,6917.818,95.436,540.633,538.732,0.0
54079.0,STARLINK-5175,PAYLOAD,2023-11-05 11:34:25,15.08865744,0.000153,53.2164,213.5191,91.6554,268.4613,0.00054961,8.476e-05,0.0,0 STARLINK-5175,1 54079U 22136AE  23309.48223953  .00008476  00000-0  54961-3 0  9995,2 54079  53.2164 213.5191 0001530  91.6554 268.4613 15.08865744 57874,6917.802,95.436,540.725,538.608,0.0
54079.0,STARLINK-5175,PAYLOAD,2023-11-05 22:42:06,15.08877957,0.000174,53.2167,211.4391,86.9885,273.1306,0.00082104,0.00012817,0.0,0 STARLINK-5175,1 54079U 22136AE  23309.94591198  .00012817  00000-0  82104-3 0  9999,2 54079  53.2167 211.4391 0001740  86.9885 273.1306 15.08877957 57942,6917.764,95.435,540.833,538.426,0.0
54079.0,STARLINK-5175,PAYLOAD,2023-11-06 03:28:15,15.08902211,0.0002113,53.2177,210.541,115.6349,244.4862,0.0012756,0.00020106,0.0,0 STARLINK-5175,1 54079U 22136AE  23310.14462002  .00020106  00000-0  12756-2 0  9999,2 54079  53.2177 210.5410 0002113 115.6349 244.4862 15.08902211 58452,6917.69,95.434,541.017,538.094,0.0
54079.0,STARLINK-5175,PAYLOAD,2023-11-06 22:32:54,15.08784958,0.0001339,53.2165,206.9757,106.2588,253.8551,-0.0019576,-0.00031261,0.0,0 STARLINK-5175,1 54079U 22136AE  23310.93952031 -.00031261  00000-0 -19576-2 0  9995,2 54079  53.2165 206.9757 0001339 106.2588 253.8551 15.08784958 58097,6918.049,95.441,540.84,538.987,0.0
54079.0,STARLINK-5175,PAYLOAD,2023-11-07 01:43:41,15.08759478,0.0001217,53.2164,206.3841,90.7554,269.3577,0.00037424,5.66e-05,0.0,0 STARLINK-5175,1 54079U 22136AE  23311.07201212  .00005660  00000-0  37424-3 0  9994,2 54079  53.2164 206.3841 0001217  90.7554 269.3577 15.08759478 58593,6918.127,95.443,540.833,539.15,0.0
54079.0,STARLINK-5175,PAYLOAD,2023-11-07 09:40:38,15.08780942,0.0001387,53.2164,204.8995,103.6624,256.4522,0.0021233,0.00033611,0.0,0 STARLINK-5175,1 54079U 22136AE  23311.40322691  .00033611  00000-0  21233-2 0  9993,2 54079  53.2164 204.8995 0001387 103.6624 256.4522 15.08780942 58649,6918.061,95.441,540.885,538.966,0.0
54079.0,STARLINK-5175,PAYLOAD,2023-11-08 03:09:54,15.08845169,0.0001315,53.2163,201.6269,102.1213,257.9926,0.0025085,0.00039866,0.0,0 STARLINK-5175,1 54079U 22136AE  23312.13187708  .00039866  00000-0  25085-2 0  9999,2 54079  53.2163 201.6269 0001315 102.1213 257.9926 15.08845169 58755,6917.865,95.437,540.639,538.82,0.0
54079.0,STARLINK-5175,PAYLOAD,2023-11-08 22:14:30,15.088829,0.0001216,53.2163,198.0575,93.8127,266.3004,0.0017034,0.00026958,0.0,0 STARLINK-5175,1 54079U 22136AE  23312.92674495  .00026958  00000-0  17034-2 0  9993,2 54079  53.2163 198.0575 0001216  93.8127 266.3004 15.08882900 58399,6917.749,95.435,540.455,538.773,0.0
54079.0,STARLINK-5175,PAYLOAD,2023-11-09 01:25:16,15.08891551,0.0001224,53.2161,197.463,96.0084,264.1048,0.0018046,0.0002859,0.0,0 STARLINK-5175,1 54079U 22136AE  23313.05922057  .00028590  00000-0  18046-2 0  9996,2 54079  53.2161 197.4630 0001224  96.0084 264.1048 15.08891551 58899,6917.723,95.434,540.435,538.741,0.0
54079.0,STARLINK-5175,PAYLOAD,2023-11-09 22:05:16,15.08860006,0.0001284,53.2158,193.5976,135.9867,224.1228,0.0010412,0.00016331,0.0,0 STARLINK-5175,1 54079U 22136AE  23313.92033466  .00016331  00000-0  10412-2 0  9998,2 54079  53.2158 193.5976 0001284 135.9867 224.1228 15.08860006 58542,6917.819,95.436,540.572,538.796,0.0
54079.0,STARLINK-5175,PAYLOAD,2023-11-10 01:16:03,15.0885621,9.42e-05,53.2161,193.0037,106.8649,253.2446,0.0010205,0.00015998,0.0,0 STARLINK-5175,1 54079U 22136AE  23314.05281583  .00015998  00000-0  10205-2 0  9996,2 54079  53.2161 193.0037 0000942 106.8649 253.2446 15.08856210 59047,6917.831,95.437,540.348,539.044,0.0
54079.0,STARLINK-5175,PAYLOAD,2023-11-10 09:12:59,15.08819388,0.0001336,53.2159,191.517,90.0087,270.1058,0.0013643,0.00021479,0.0,0 STARLINK-5175,1 54079U 22136AE  23314.38401916  .00021479  00000-0  13643-2 0  9996,2 54079  53.2159 191.5170 0001336  90.0087 270.1058 15.08819388 59090,6917.943,95.439,540.733,538.884,0.0
54079.0,STARLINK-5175,PAYLOAD,2023-11-10 20:20:41,15.0883993,0.0001372,53.216,189.4359,90.8829,269.232,0.0010567,0.00016569,0.0,0 STARLINK-5175,1 54079U 22136AE  23314.84770240  .00016569  00000-0  10567-2 0  9992,2 54079  53.2160 189.4359 0001372  90.8829 269.2320 15.08839930 58689,6917.881,95.438,540.695,538.796,0.0
54079.0,STARLINK-5175,PAYLOAD,2023-11-11 09:03:46,15.08838082,0.0001455,53.215,187.0548,90.2893,269.8266,0.00038681,5.873e-05,0.0,0 STARLINK-5175,1 54079U 22136AE  23315.37762335  .00005873  00000-0  38681-3 0  9991,2 54079  53.2150 187.0548 0001455  90.2893 269.8266 15.08838082 59244,6917.886,95.438,540.758,538.745,0.0
54079.0,STARLINK-5175,PAYLOAD,2023-11-11 21:46:51,15.08842435,0.0001487,53.2152,184.6747,92.9493,267.167,0.00034618,5.226e-05,0.0,0 STARLINK-5175,1 54079U 22136AE  23315.90754332  .00005226  00000-0  34618-3 0  9996,2 54079  53.2152 184.6747 0001487  92.9493 267.1670 15.08842435 58842,6917.873,95.437,540.767,538.709,0.0
54079.0,STARLINK-5175,PAYLOAD,2023-11-12 08:54:33,15.08846308,0.0001516,53.215,182.594,90.3866,269.73,0.00034673,5.235e-05,0.0,0 STARLINK-5175,1 54079U 22136AE  23316.37122240  .00005235  00000-0  34673-3 0  9996,2 54079  53.2150 182.5940 0001516  90.3866 269.7300 15.08846308 58910,6917.861,95.437,540.775,538.677,0.0
54079.0,STARLINK-5175,PAYLOAD,2023-11-12 18:26:52,15.08850384,0.0001544,53.2158,180.8094,91.2605,268.8564,0.0003617,5.475e-05,0.0,0 STARLINK-5175,1 54079U 22136AE  23316.76866061  .00005475  00000-0  36170-3 0  9995,2 54079  53.2158 180.8094 0001544  91.2605 268.8564 15.08850384 59452,6917.849,95.437,540.782,538.646,0.0
54079.0,STARLINK-5175,PAYLOAD,2023-11-12 21:37:38,15.08853175,0.0001576,53.2159,180.2141,94.083,266.0343,0.00030765,4.613e-05,0.0,0 STARLINK-5175,1 54079U 22136AE  23316.90113824  .00004613  00000-0  30765-3 0  9990,2 54079  53.2159 180.2141 0001576  94.0830 266.0343 15.08853175 58990,6917.84,95.437,540.795,538.615,0.0
54079.0,STARLINK-5175,PAYLOAD,2023-11-13 00:48:24,15.08855316,0.0001595,53.2158,179.6195,93.2888,266.8286,0.00027438,4.083e-05,0.0,0 STARLINK-5175,1 54079U 22136AE  23317.03361651  .00004083  00000-0  27438-3 0  9992,2 54079  53.2158 179.6195 0001595  93.2888 266.8286 15.08855316 59012,6917.834,95.437,540.802,538.595,0.0
54079.0,STARLINK-5175,PAYLOAD,2023-11-13 21:28:25,15.08845227,0.0001582,53.2146,175.7547,90.851,269.2664,9.3578e-05,1.202e-05,0.0,0 STARLINK-5175,1 54079U 22136AE  23317.89473780  .00001202  00000-0  93578-4 0  9992,2 54079  53.2146 175.7547 0001582  90.8510 269.2664 15.08845227 59149,6917.864,95.437,540.824,538.635,0.0
